[{"OBJECT_NAME":"NANOSATC-BR1","OBJECT_ID":"2014-033Q","EPOCH":"2026-03-09T23:35:03.168384","MEAN_MOTION":15.28136801,"ECCENTRICITY":0.00046435,"INCLINATION":98.0845,"RA_OF_ASC_NODE":92.7804,"ARG_OF_PERICENTER":147.6715,"MEAN_ANOMALY":212.4808,"EPHEMERIS_TYPE":0,"CLASSIFICATION_TYPE":"U","NORAD_CAT_ID":40024,"ELEMENT_SET_NO":999,"REV_AT_EPOCH":63881,"BSTAR":0.00074295057,"MEAN_MOTION_DOT":0.00020336,"MEAN_MOTION_DDOT":0},{"OBJECT_NAME":"STARLINK-30095","OBJECT_ID":"2023-056D","EPOCH":"2026-03-09T22:00:01.999584","MEAN_MOTION":15.26748079,"ECCENTRICITY":0.00011913,"INCLINATION":43.003,"RA_OF_ASC_NODE":181.6942,"ARG_OF_PERICENTER":278.916,"MEAN_ANOMALY":30.7341,"EPHEMERIS_TYPE":0,"CLASSIFICATION_TYPE":"U","NORAD_CAT_ID":56289,"ELEMENT_SET_NO":999,"REV_AT_EPOCH":578,"BSTAR":0.00026116241,"MEAN_MOTION_DOT":6.754e-5,"MEAN_MOTION_DDOT":0}]
